{
  "norad_id": 62744,
  "name": "STARLINK-32758",
  "history": [
    {
      "epoch": "2026-03-28T14:56:19.051008Z",
      "apogee_km": 484.300295048055,
      "perigee_km": 481.65327734933817,
      "latitude_deg": 3.1887523178065156e-05,
      "longitude_deg": 0.7483114408583561,
      "height_km": 482.50614732658084,
      "semi_major_axis_km": 6861.113786198696,
      "eccentricity": 0.0001929,
      "inclination_deg": 43.006,
      "raan_deg": 50.8679,
      "arg_perigee_deg": 280.819,
      "mean_anomaly_deg": 79.2445,
      "mean_motion_rev_day": 15.27604149
    }
  ]
}